NORAD_CAT_ID,OBJECT_NAME,OBJECT_TYPE,EPOCH,MEAN_MOTION,ECCENTRICITY,INCLINATION,RA_OF_ASC_NODE,ARG_OF_PERICENTER,MEAN_ANOMALY,BSTAR,MEAN_MOTION_DOT,MEAN_MOTION_DDOT,TLE_LINE0,TLE_LINE1,TLE_LINE2,SEMIMAJOR_AXIS,PERIOD,APOGEE,PERIGEE,DECAYED
52375.0,STARLINK-3785,PAYLOAD,2023-04-09 19:32:48,15.08845694,9.64e-05,53.2161,289.5307,89.6252,270.4851,0.00015041,2.107e-05,0.0,0 STARLINK-3785,1 52375U 22045AW  23099.81445400  .00002107  00000-0  15041-3 0  9998,2 52375  53.2161 289.5307 0000964  89.6252 270.4851 15.08845694 55161,6917.863,95.437,540.395,539.061,0.0
52375.0,STARLINK-3785,PAYLOAD,2023-04-10 13:02:03,15.08839207,8.62e-05,53.2161,286.2599,91.2345,268.8746,0.00011408,1.528e-05,0.0,0 STARLINK-3785,1 52375U 22045AW  23100.54309778  .00001528  00000-0  11408-3 0  9997,2 52375  53.2161 286.2599 0000862  91.2345 268.8746 15.08839207 55276,6917.883,95.438,540.344,539.151,0.0
52375.0,STARLINK-3785,PAYLOAD,2023-04-10 19:23:35,15.08844422,8.71e-05,53.2163,285.071,92.4975,267.6117,0.00016266,2.302e-05,0.0,0 STARLINK-3785,1 52375U 22045AW  23100.80805444  .00002302  00000-0  16266-3 0  9995,2 52375  53.2163 285.0710 0000871  92.4975 267.6117 15.08844422 55311,6917.867,95.437,540.334,539.129,0.0
52375.0,STARLINK-3785,PAYLOAD,2023-04-11 12:52:50,15.08836646,0.0001127,53.2186,281.8008,107.2126,252.8989,-1.8339e-05,-5.8e-06,0.0,0 STARLINK-3785,1 52375U 22045AW  23101.53669792 -.00000580  00000-0 -18339-4 0  9992,2 52375  53.2186 281.8008 0001127 107.2126 252.8989 15.08836646 55422,6917.891,95.438,540.535,538.976,0.0
52375.0,STARLINK-3785,PAYLOAD,2023-04-12 11:08:14,15.08841923,0.000144,53.222,277.6382,102.6957,257.4196,1.961e-05,2.4e-07,0.0,0 STARLINK-3785,1 52375U 22045AW  23102.46405809  .00000024  00000-0  19610-4 0  9996,2 52375  53.2220 277.6382 0001440 102.6957 257.4196 15.08841923 55568,6917.875,95.437,540.736,538.743,0.0
52375.0,STARLINK-3785,PAYLOAD,2023-04-13 04:37:28,15.088449,7.44e-05,53.2222,274.3681,75.3719,284.7356,0.00017833,2.552e-05,0.0,0 STARLINK-3785,1 52375U 22045AW  23103.19269629  .00002552  00000-0  17833-3 0  9997,2 52375  53.2222 274.3681 0000744  75.3719 284.7356 15.08844900 55675,6917.865,95.437,540.245,539.216,0.0
52375.0,STARLINK-3785,PAYLOAD,2023-04-13 17:20:34,15.08845402,0.0001493,53.2186,271.9877,77.1316,282.9843,0.0002297,3.37e-05,0.0,0 STARLINK-3785,1 52375U 22045AW  23103.72261903  .00003370  00000-0  22970-3 0  9990,2 52375  53.2186 271.9877 0001493  77.1316 282.9843 15.08845402 55757,6917.864,95.437,540.762,538.696,0.0
52375.0,STARLINK-3785,PAYLOAD,2023-04-14 10:49:49,15.08837769,0.0001201,53.2156,268.7157,76.2591,283.8534,7.2295e-06,-1.73e-06,0.0,0 STARLINK-3785,1 52375U 22045AW  23104.45126320 -.00000173  00000-0  72295-5 0  9990,2 52375  53.2156 268.7157 0001201  76.2591 283.8534 15.08837769 55867,6917.887,95.438,540.583,538.921,0.0
52375.0,STARLINK-3785,PAYLOAD,2023-04-15 13:51:22,15.08845145,0.0001638,53.2151,263.661,70.8723,289.2447,8.7016e-05,1.097e-05,0.0,0 STARLINK-3785,1 52375U 22045AW  23105.57734108  .00001097  00000-0  87016-4 0  9994,2 52375  53.2151 263.6610 0001638  70.8723 289.2447 15.08845145 56031,6917.865,95.437,540.863,538.597,0.0
52375.0,STARLINK-3785,PAYLOAD,2023-04-15 20:12:54,15.08855342,0.0001234,53.2149,262.4696,78.4439,281.6691,0.00034789,5.255e-05,0.0,0 STARLINK-3785,1 52375U 22045AW  23105.84229542  .00005255  00000-0  34789-3 0  9993,2 52375  53.2149 262.4696 0001234  78.4439 281.6691 15.08855342 56070,6917.833,95.437,540.552,538.845,0.0
52375.0,STARLINK-3785,PAYLOAD,2023-04-15 21:48:17,15.088599,0.0001187,53.2159,262.1731,69.921,290.1909,0.00029377,4.393e-05,0.0,0 STARLINK-3785,1 52375U 22045AW  23105.90853081  .00004393  00000-0  29377-3 0  9990,2 52375  53.2159 262.1731 0001187  69.9210 290.1909 15.08859900 56089,6917.82,95.436,540.506,538.863,0.0
52375.0,STARLINK-3785,PAYLOAD,2023-04-16 13:42:09,15.08837084,0.0001331,53.2139,259.2021,65.5763,294.5368,9.9171e-06,-1.3e-06,0.0,0 STARLINK-3785,1 52375U 22045AW  23106.57094388 -.00000130  00000-0  99171-5 0  9998,2 52375  53.2139 259.2021 0001331  65.5763 294.5368 15.08837084 56189,6917.889,95.438,540.675,538.834,0.0
52375.0,STARLINK-3785,PAYLOAD,2023-04-16 20:03:41,15.08848566,0.0001156,53.2148,258.009,86.3947,273.7178,0.00013862,1.919e-05,0.0,0 STARLINK-3785,1 52375U 22045AW  23106.83589695  .00001919  00000-0  13862-3 0  9993,2 52375  53.2148 258.0090 0001156  86.3947 273.7178 15.08848566 56222,6917.854,95.437,540.519,538.92,0.0
52375.0,STARLINK-3785,PAYLOAD,2023-04-17 13:32:56,15.08836318,0.0001092,53.2152,254.737,92.1036,268.0082,3.7037e-05,3.02e-06,0.0,0 STARLINK-3785,1 52375U 22045AW  23107.56454292  .00000302  00000-0  37037-4 0  9994,2 52375  53.2152 254.7370 0001092  92.1036 268.0082 15.08836318 56339,6917.892,95.438,540.512,539.001,0.0
52375.0,STARLINK-3785,PAYLOAD,2023-04-17 16:43:42,15.08843955,0.000119,53.2147,254.1429,90.0294,270.0834,0.00011192,1.494e-05,0.0,0 STARLINK-3785,1 52375U 22045AW  23107.69701951  .00001494  00000-0  11192-3 0  9991,2 52375  53.2147 254.1429 0001190  90.0294 270.0834 15.08843955 56359,6917.868,95.437,540.557,538.91,0.0
52375.0,STARLINK-3785,PAYLOAD,2023-04-18 10:12:57,15.08831797,0.0001052,53.2164,250.875,85.8672,274.244,7.9271e-05,9.74e-06,0.0,0 STARLINK-3785,1 52375U 22045AW  23108.42566787  .00000974  00000-0  79271-4 0  9994,2 52375  53.2164 250.8750 0001052  85.8672 274.2440 15.08831797 56469,6917.905,95.438,540.498,539.043,0.0
52375.0,STARLINK-3785,PAYLOAD,2023-04-18 16:34:29,15.08840163,0.0001218,53.2175,249.6876,95.4466,264.6665,0.00012191,1.653e-05,0.0,0 STARLINK-3785,1 52375U 22045AW  23108.69062430  .00001653  00000-0  12191-3 0  9991,2 52375  53.2175 249.6876 0001218  95.4466 264.6665 15.08840163 56502,6917.88,95.438,540.587,538.902,0.0
52375.0,STARLINK-3785,PAYLOAD,2023-04-18 19:45:15,15.08845566,0.0001386,53.2181,249.0916,105.2562,254.8583,0.00015677,2.208e-05,0.0,0 STARLINK-3785,1 52375U 22045AW  23108.82310129  .00002208  00000-0  15677-3 0  9996,2 52375  53.2181 249.0916 0001386 105.2562 254.8583 15.08845566 56525,6917.863,95.437,540.687,538.77,0.0
52375.0,STARLINK-3785,PAYLOAD,2023-04-19 10:03:44,15.08836459,0.0001353,53.2174,246.4122,85.0551,275.0596,1.8598e-05,8e-08,0.0,0 STARLINK-3785,1 52375U 22045AW  23109.41926707  .00000008  00000-0  18598-4 0  9999,2 52375  53.2174 246.4122 0001353  85.0551 275.0596 15.08836459 56614,6917.891,95.438,540.692,538.82,0.0
52375.0,STARLINK-3785,PAYLOAD,2023-04-19 16:25:16,15.08842299,0.0001304,53.2179,245.2231,88.9036,271.2105,0.00014629,2.041e-05,0.0,0 STARLINK-3785,1 52375U 22045AW  23109.68422423  .00002041  00000-0  14629-3 0  9993,2 52375  53.2179 245.2231 0001304  88.9036 271.2105 15.08842299 56650,6917.873,95.437,540.64,538.836,0.0
52375.0,STARLINK-3785,PAYLOAD,2023-04-20 01:57:35,15.08840388,0.000115,53.2166,243.4379,83.203,276.9092,9.3827e-05,1.206e-05,0.0,0 STARLINK-3785,1 52375U 22045AW  23110.08166478  .00001206  00000-0  93827-4 0  9994,2 52375  53.2166 243.4379 0001150  83.2030 276.9092 15.08840388 56711,6917.879,95.438,540.54,538.949,0.0
52375.0,STARLINK-3785,PAYLOAD,2023-04-20 11:29:55,15.08833707,0.0001323,53.2174,241.6543,87.9139,272.2005,4.5006e-05,4.28e-06,0.0,0 STARLINK-3785,1 52375U 22045AW  23110.47911009  .00000428  00000-0  45006-4 0  9996,2 52375  53.2174 241.6543 0001323  87.9139 272.2005 15.08833707 56772,6917.9,95.438,540.68,538.849,0.0
52375.0,STARLINK-3785,PAYLOAD,2023-04-20 13:05:18,15.08834231,0.0001359,53.2176,241.3572,88.7392,271.3755,3.7011e-05,3.01e-06,0.0,0 STARLINK-3785,1 52375U 22045AW  23110.54535014  .00000301  00000-0  37011-4 0  9999,2 52375  53.2176 241.3572 0001359  88.7392 271.3755 15.08834231 56788,6917.898,95.438,540.703,538.823,0.0
52375.0,STARLINK-3785,PAYLOAD,2023-04-20 17:51:27,15.08842699,0.0001391,53.2174,240.4665,88.6318,271.4834,7.9999e-05,9.86e-06,0.0,0 STARLINK-3785,1 52375U 22045AW  23110.74406585  .00000986  00000-0  79999-4 0  9991,2 52375  53.2174 240.4665 0001391  88.6318 271.4834 15.08842699 56812,6917.872,95.437,540.699,538.775,0.0
52375.0,STARLINK-3785,PAYLOAD,2023-04-21 01:48:22,15.08841207,0.0001155,53.2168,238.9783,89.4421,270.6704,1.3274e-05,-7.7e-07,0.0,0 STARLINK-3785,1 52375U 22045AW  23111.07526617 -.00000077  00000-0  13274-4 0  9993,2 52375  53.2168 238.9783 0001155  89.4421 270.6704 15.08841207 56866,6917.877,95.437,540.541,538.943,0.0
52375.0,STARLINK-3785,PAYLOAD,2023-04-21 14:31:28,15.0883808,0.0001179,53.2161,236.599,82.1373,277.9753,0.00012681,1.731e-05,0.0,0 STARLINK-3785,1 52375U 22045AW  23111.60518928  .00001731  00000-0  12681-3 0  9995,2 52375  53.2161 236.5990 0001179  82.1373 277.9753 15.08838080 56943,6917.886,95.438,540.567,538.936,0.0
52375.0,STARLINK-3785,PAYLOAD,2023-04-21 20:52:59,15.08853113,0.0001002,53.2157,235.4069,76.9532,283.1572,0.00013872,1.921e-05,0.0,0 STARLINK-3785,1 52375U 22045AW  23111.87013824  .00001921  00000-0  13872-3 0  9993,2 52375  53.2157 235.4069 0001002  76.9532 283.1572 15.08853113 56982,6917.84,95.437,540.398,539.012,0.0
52375.0,STARLINK-3785,PAYLOAD,2023-04-22 01:39:10,15.08833923,4.09e-05,53.217,234.5192,284.5108,75.5839,1.359e-05,-7.1e-07,0.0,0 STARLINK-3785,1 52375U 22045AW  23112.06886797 -.00000071  00000-0  13590-4 0  9996,2 52375  53.2170 234.5192 0000409 284.5108  75.5839 15.08833923 57011,6917.899,95.438,540.047,539.481,0.0
52375.0,STARLINK-3785,PAYLOAD,2023-04-22 19:08:24,15.08850042,0.0001424,53.2154,231.2469,73.9778,286.1371,9.4674e-05,1.219e-05,0.0,0 STARLINK-3785,1 52375U 22045AW  23112.79750136  .00001219  00000-0  94674-4 0  9999,2 52375  53.2154 231.2469 0001424  73.9778 286.1371 15.08850042 57129,6917.85,95.437,540.7,538.73,0.0
52375.0,STARLINK-3785,PAYLOAD,2023-04-23 01:29:57,15.08831239,0.0001073,53.2163,230.0591,70.6608,289.45,-3.5159e-05,-8.47e-06,0.0,0 STARLINK-3785,1 52375U 22045AW  23113.06247555 -.00000847  00000-0 -35159-4 0  9997,2 52375  53.2163 230.0591 0001073  70.6608 289.4500 15.08831239 57169,6917.907,95.438,540.514,539.03,0.0
